,id,address,categories,city,latitude,longitude,postalCode,province,dateAdded_f,dateUpdated_f,names,days_exists
1,AVzBEzQZ3D1zeR_xBGhg,18070 Bagley Rd,"Ice Cream Parlors,Carry-out food,Breakfast,Hot dog restaurants,Hamburger restaurants,Fast Food,Karaoke,Restaurants,Frozen Yogurt Shops,Restaurant,Burger Joint,Fast Food Restaurant,Coffeehouses,Salads,Fast food restaurants,Hamburgers,Sandwich Shops",Cleveland,41.3724,-81.8272,44130,OH,2017-06-19,2019-05-03,McDonalds,683
3,AVz1W62hLD2H7whiX_Ns,1237 S.O.M. Center Rd.,"Burger Joint,Fast Food Restaurant,American Restaurant,Restaurants",Cleveland,41.52663,-81.437629,44124,OH,2017-06-29,2019-04-23,Five Guys,663
4,AV1goIHdIxWefVJwf1UM,6557 Broadway Ave,"Carry-out food,Caterers,Restaurant delivery service,Chicken Wings,Food Delivery,American restaurants,Karaoke,Take Out Restaurants,Fast Food Restaurants,Home delivery beer and beverages,Restaurants,Pizza,Restaurant,Pizza Place,Catering",Cleveland,41.46221,-81.64337,44105,OH,2017-07-20,2019-04-22,Pizza Hut,641
5,AVzBEtWP-gnIPe8DSjM6,22855 Emery Rd,"Carry-out food,Restaurant,Caterers,Fried Chicken Joint,Barbecued poultry,Fast Food Restaurant,Barbecue,Spare rib restaurants,Chicken restaurants,Catering,Restaurants",Cleveland,41.435691,-81.51809,44128,OH,2017-06-19,2019-04-22,KFC,672
6,AVzTg-4E-gnIPe8DS7y9,6677 Pearl Rd,"Carry-out food,American Restaurant,American restaurants,Fast Food Restaurants,Fast Food,Karaoke,Restaurants,Delis And Delicatessens,Restaurant,Fast Food Restaurant,Traditional American,wich Place,Sandwich Place,Sandwich Shops",Cleveland,41.380759,-81.782945,44130,OH,2017-06-23,2019-04-20,Arby's,666
7,AVwc3KaSIN2L1WUfptEG,5092 Tiedeman Rd,"Asian Restaurants,American Restaurants,Chinese Restaurant,Japanese Restaurants,Chinese Restaurants,Sushi Restaurant,Chinese Restaurant and Sushi Restaurant,Take Out Restaurants,Fast Food Restaurants,Sushi Bars,Bistros,Restaurants",Cleveland,41.423078,-81.761787,44144,OH,2015-10-24,2019-04-15,Wild Ginger China Bistro,1269
8,AVwch3px_7pvs4fzwF9U,7456 Broadview Rd,"Grocery Stores,Pizza,Restaurant,Chicken Wings,Florists,Food Delivery,Take Out Restaurants,Fast Food Restaurants,Pizza Place,Family Style Restaurants,Catering,Restaurants",Cleveland,41.363122,-81.685393,44134,OH,2016-02-17,2019-04-15,Pizza Hut,1153
9,AVwdBVO-IN2L1WUfrYZg,3362 Warren Rd,"Delis And Delicatessens,Restaurant,Carry-out food,Delicatessens,Fast Food Restaurant,wich Place,Sandwiches,Sandwich Place,Restaurants,Sandwich Shops",Cleveland,41.462409,-81.802945,44111,OH,2016-03-31,2019-04-10,SUBWAY,1105
10,AV0BSRr6-gnIPe8DUvf6,6629 Engle Rd,"Fast Food Restaurant,wich Place,Sandwich Place",Cleveland,41.38823,-81.82332,44130,OH,2017-07-02,2019-04-10,SUBWAY,647
11,AVwd1cYT_7pvs4fz9r83,7402 Broadview Rd,"Grill Restaurants,Mexican,Tex-mex restaurants,Southwestern restaurants,Food Delivery,Mexican restaurants,Fast Food Restaurants,Take Out Restaurants,Fast Food,Restaurants,Mexican Restaurant,Brunch,Fast Food Restaurant,Catering,Burrito Place",Cleveland,41.365112,-81.685438,44134,OH,2017-01-15,2019-04-10,QDOBA Mexican Eats,815
12,AVzBB32XLD2H7whiWKc9,2115 Warrensville Center Rd,"Carry-out food,American Restaurant,American restaurants,Fast Food Restaurants,Karaoke,Fast Food,Restaurants,Delis And Delicatessens,Restaurant,Fast Food Restaurant,Traditional American,wich Place,Sandwich Place,Sandwich Shops",Cleveland,41.50222,-81.535929,44121,OH,2017-06-19,2019-04-05,Arby's,655
13,AVwclzmfByjofQCxf_Qi,7739 W Ridgewood Dr,"Ice Cream & Frozen Desserts,Hamburgers & Hot Dogs,Ice Cream and Frozen Desserts,Fast Food Restaurants,Dessert Restaurants,Hamburgers and Hot Dogs,Juice Bar,Restaurants,Ice Cream Shop",Cleveland,41.383139,-81.739438,44129,OH,2015-11-24,2019-04-05,Dairy Queen,1228
14,AVweHR3MkufWRAb5AHZT,2075 W 25th St,"Carry-out food,Italian Restaurant,Caterers,Restaurant delivery service,American restaurants,Karaoke,Take Out Restaurants,Fast Food Restaurants,Home delivery beer and beverages,Family Style Restaurants,Restaurants,Pizza,Pizza Place,Catering",Cleveland,41.483479,-81.702325,44113,OH,2015-10-23,2019-04-04,Pizza Hut,1259
15,AVzoETR7FcQ3k02bCxVe,4001 Mayfield Rd,"Carry-out food,Caterers,Fried Chicken Joint,Barbecued poultry,Fast Food Restaurant,Karaoke,Barbecue,Spare rib restaurants,Chicken restaurants,Catering,Restaurants",Cleveland,41.5208,-81.5362,44121,OH,2017-06-27,2019-04-04,KFC,646
16,AVwdWu6qIN2L1WUfu8tV,4754 Ridge Rd,"Carry-out food,Burger Joint,Restaurant,Irish Restaurants,American Restaurant,American Restaurant and Burger Joint,American restaurants,Take Out Restaurants,Fast Food Restaurants,Family Style Restaurants,Restaurants,Bars",Cleveland,41.425269,-81.735596,44144,OH,2015-11-11,2019-04-02,Rocknes,1238
20,AV3iVAJaa4HuVbed_BQA,9761 Vista Way,"Mexican Restaurant,Carry-out food,Mexican,Tex-mex restaurants,Southwestern restaurants,Fast Food Restaurant,Mexican restaurants,Burrito Place,Restaurants",Cleveland,41.4095,-81.6163,44125,OH,2017-08-14,2019-04-01,Chipotle Mexican Grill,595
21,AV50n-d5a4HuVbedEL3g,6409 Harvard Ave,"Restaurant,Carry-out food,Delicatessens,Fast Food Restaurant,Sandwich Place,Restaurants",Cleveland,41.448128,-81.645068,44105,OH,2017-09-12,2019-04-01,Mr Hero,566
22,AVzA_1Sw-gnIPe8DSgaR,13961 Cedar Rd,"Delis And Delicatessens,Carry-out food,Restaurant delivery service,Delicatessens,Fast Food Restaurant,wich Place,Home delivery beer and beverages,Catering,Restaurants,School information,Sandwich Shops",Cleveland,41.5014,-81.5375,44118,OH,2017-06-19,2019-04-01,Jimmy Johns,651
23,AVz1W62m3D1zeR_xC3QD,6225 Mayfield Rd,"Ice Cream Parlors,Carry-out food,Breakfast,Hot dog restaurants,Hamburger restaurants,Fast Food Restaurants,Take Out Restaurants,Fast Food,Restaurants,Frozen Yogurt Shops,Restaurant,Burger Joint,Fast Food Restaurant,Coffeehouses,Salads,Hamburgers and Hot Dogs,Hamburgers,Sandwich Shops",Cleveland,41.5205,-81.4554,44124,OH,2017-06-29,2019-04-01,McDonalds,641
24,AVzoEeMO-gnIPe8DT67C,2245 Lee Rd,"Caterers,Greek Restaurant,Greek Restaurants,Turkish restaurants,Mediterranean Restaurants,Fast Food Restaurants,Armenian restaurants,Restaurants,Sandwich Shops",Cleveland,41.4985,-81.5651,44118,OH,2017-06-27,2019-04-01,Best Gyros,643
25,AVwc-lxT_7pvs4fz0-KB,16729 Lorain Ave,"Mexican Restaurant,Mexican Restaurant, Burrito Place, and Taco Place Kamm's Corners,Carry-out food,Restaurant,Mexican,Taco Place,Tex-mex restaurants,Southwestern restaurants,Fast Food Restaurant,Mexican restaurants,Burrito Place,Restaurants",Cleveland,41.4502,-81.8141,44111,OH,2016-03-31,2019-04-01,Chipotle Mexican Grill,1096
26,AVwcoCpa_7pvs4fzxMv3,13971 Cedar Rd,"Burger Joint,Fast Food Restaurant,American Restaurant,Restaurants",Cleveland,41.5014,-81.5372,44118,OH,2015-11-04,2019-04-01,Five Guys,1244
27,AVzBEzTvLD2H7whiWL7D,7245 Pearl Rd,"Ice Cream Parlors,Carry-out food,Breakfast,Hot dog restaurants,Hamburger restaurants,Fast Food Restaurants,Take Out Restaurants,Fast Food,Restaurants,Frozen Yogurt Shops,Restaurant,Burger Joint,Fast Food Restaurant,Coffeehouses,Salads,Hamburgers and Hot Dogs,Hamburgers,Sandwich Shops",Cleveland,41.3684,-81.8031,44130,OH,2017-06-19,2019-04-01,McDonalds,651
28,AVwd3DhZ_7pvs4fz95nU,16800 Chagrin Blvd,"Carry-out food,Caterers,Restaurant delivery service,Chicken Wings,Food Delivery,American restaurants,Karaoke,Take Out Restaurants,Fast Food Restaurants,Home delivery beer and beverages,Family Style Restaurants,Restaurants,Pizza,Restaurant,Pizza Place,Catering",Cleveland,41.4643,-81.5626,44120,OH,2015-10-23,2019-04-01,Pizza Hut,1256
29,AV1c4uYSRxPSIh2RYuNm,13901 Cedar Road,"Restaurant,Breakfast,Traditional American,Food Delivery,Fast Food,Coffeehouses,Bakeries,Catering,Restaurants,Sandwich Shops",Cleveland,41.5016,-81.5394,44118,OH,2017-07-19,2019-04-01,Panera Bread,621
30,AVwdJyiQIN2L1WUfsv0y,2785 Mayfield Rd,"Auto repairing,Carry-out food,Delicatessens,Fast Food Restaurant,Mechanical contractors,Take Out Restaurants,Fast Food Restaurants,Machine shops,Sandwiches,Sandwich Place,Restaurants,Sandwich Shops",Cleveland,41.511924,-81.580506,44106,OH,2016-04-03,2019-03-26,SUBWAY,1087
31,AVzBB7ST3D1zeR_xBFHO,7080 Engle Rd Ste A,"Restaurant,Carry-out food,Delicatessens,Fast Food Restaurant,wich Place,Family Style Restaurants,Sandwich Place,Restaurants,Sandwich Shops",Cleveland,41.374556,-81.825097,44130,OH,2017-06-19,2019-03-26,Penn Station East Coast Subs,645
33,AVwdfpwN_7pvs4fz6cRd,836 W Saint Clair Ave,"Carry-out food,Caterers,Restaurant delivery service,Delicatessens,Fast Food Restaurants,Home delivery beer and beverages,Sandwiches,Sandwich Place,Restaurants,Sandwich Shops",Cleveland,41.49914,-81.69963,44113,OH,2016-07-07,2019-03-22,Jimmy Johns,988
34,AVwdiXUrByjofQCxqFYA,7002 Biddulph Rd,"Carry-out food,Caterers,Restaurant delivery service,American restaurants,Karaoke,Fast Food Restaurants,Take Out Restaurants,Home delivery beer and beverages,Family Style Restaurants,Restaurants,Pizza,Restaurant,Pizza Place,Catering",Cleveland,41.4304,-81.7279,44144,OH,2015-12-02,2019-02-01,Pizza Hut,1157
37,AVwdvzGbIN2L1WUfy1AE,3255 W 117th St,"Carry-out food,Hot dog restaurants,Fried Chicken Joint,Hamburger restaurants,Take Out Restaurants,Fast Food Restaurants,Chicken Restaurants,Restaurants",Cleveland,41.464745,-81.768873,44111,OH,2016-06-06,2019-01-08,Church's Chicken,946
39,AVwc7fflByjofQCxjvBr,2190 Brookpark Rd,"Asian Restaurants,Restaurant,Chinese Restaurant,Carry-out food,Chinese Restaurants,Chinese Restaurant Old Brooklyn,Take Out Restaurants,Fast Food Restaurants,Family Style Restaurants,Restaurants",Cleveland,41.419178,-81.696876,44134,OH,2015-09-13,2018-12-24,China Jade,1198
41,AVzBB30h-gnIPe8DShyq,3988 Mayfield Rd,"Delis And Delicatessens,Restaurant,Carry-out food,Delicatessens,wich Place,Take Out Restaurants,Fast Food Restaurants,Sandwiches,Restaurants,Sandwich Shops",Cleveland,41.520694,-81.536728,44121,OH,2017-06-19,2018-12-23,SUBWAY,552
43,AV1gfxEQa4HuVbed6-yt,6110 Mayfield Rd,"Natural food restaurants,Carry-out food,Indian restaurants,American restaurants,Take Out Restaurants,Health Food Restaurants,Fast Food Restaurants,Karaoke,Restaurants,Juice bars,Restaurant,Vegetarian restaurants",Cleveland,41.51973,-81.45921,44124,OH,2017-07-20,2018-12-23,South India Cuisine,521
44,AVweYmgsIN2L1WUf4cYK,2903 Clark Ave,"Carry-out food,Barbecued poultry,American restaurants,Fast Food,Take Out Restaurants,Fast Food Restaurants,Chicken Restaurants,Barbecue,Spare rib restaurants,Restaurants",Cleveland,41.46988,-81.701485,44109,OH,2015-09-28,2018-12-23,Popeye's Louisiana Kitchen,1182
45,AV1tcCuIa4HuVbed8DG9,5615 Mayfield Rd,"Carry-out food,Petroleum products,Delicatessens,Service stations,Take Out Restaurants,Fast Food Restaurants,Cylinder and bulk, industrial and medical gas,Restaurants,Restaurant,Trucking,wich Place,Convenience stores,Sandwiches,Sandwich Shops",Cleveland,41.52032,-81.4773,44124,OH,2017-07-23,2018-12-22,SUBWAY,517
46,AVwci8VaByjofQCxfcs6,16860 Lorain Ave,"Restaurant,Turkish restaurants,Mediterranean Restaurants,Hamburger restaurants,Take Out Restaurants,Armenian restaurants,Fast food restaurants,Greek restaurants,Restaurants",Cleveland,41.450603,-81.81483,44111,OH,2016-03-28,2018-12-21,Gyro World,998
48,AVwdUs6g_7pvs4fz4q6n,6220 Memphis Ave,"Restaurant,Carry-out food,Delicatessens,wich Place,Take Out Restaurants,Fast Food Restaurants,Sandwiches,Sandwich Place,Sandwich Place Old Brooklyn,Restaurants,Sandwich Shops",Cleveland,41.439938,-81.730201,44144,OH,2015-09-21,2018-12-12,SUBWAY,1178
49,AVzBB7V4FcQ3k02bBci-,9500 Euclid Ave M18,"Delis And Delicatessens,Carry-out food,Restaurant,Delicatessens,wich Place,Take Out Restaurants,Fast Food Restaurants,Sandwiches,Restaurants,Sandwich Shops",Cleveland,41.4918,-81.6757,44195,OH,2017-06-19,2018-12-08,SUBWAY,537
53,AVwcmi1eIN2L1WUfm0xN,1881 S High St,"Greek Restaurants,American Restaurant,Breakfast Brunch and Lunch Restaurants,,Fast Food Restaurants,Karaoke,Restaurants,American Restaurants,Restaurant,Mediterranean Restaurants,Diner,Breakfast Brunch & Lunch Restaurants,,Diner and American Restaurant,Diner and American Restaurant Merion Village",Columbus,39.9238,-82.9956,43207,OH,2015-09-13,2019-05-03,Dan's Drive In,1328
54,AVwdYzObByjofQCxolRB,5467 Bethel Sawmill Ctr,"Delis And Delicatessens,Restaurant,Delicatessens,wich Place,Fast Food Restaurants,Pizza Place,Catering,Sandwich Place,Restaurants,Sandwich Shops",Columbus,40.066257,-83.093486,43235,OH,2016-04-02,2019-05-01,WG Grinders,1124
55,AVwdk4u1kufWRAb57Pjd,1925 Hard Rd,"Delis And Delicatessens,Restaurant,Delicatessens,Sandwich Place and Food,wich Place,Fast Food Restaurants,Catering,Sandwich Place,Restaurants,Food,Sandwich Shops",Columbus,40.116766,-83.067555,43235,OH,2016-07-23,2019-05-01,WG Grinders,1012
56,AVwc8eHD_7pvs4fz0okA,2910 E Main St,"Delis And Delicatessens,Restaurant,Carry-out food,Delicatessens,Fast Food Restaurant,Sandwiches,Sandwich Place,Restaurants,Sandwich Shops",Columbus,39.956709,-82.920879,43209,OH,2016-03-28,2019-04-26,SUBWAY,1124
57,AVwcxVF7_7pvs4fzyyVX,1726 N High St,"Mexican Restaurant, Burrito Place, and Taco Place University,Carry-out food,Mexican,Taco Place,Tex-mex restaurants,Southwestern restaurants,Mexican restaurants,Fast Food Restaurants,Take Out Restaurants,Restaurants,Mexican Restaurant,Restaurant,Burrito Place,Gas and electric grills",Columbus,39.997535,-83.007366,43201,OH,2015-11-20,2019-04-26,Chipotle Mexican Grill,1253
58,AVwdYDS4ByjofQCxodn2,3655 W Dublin Granville Rd,"Carry-out food,Caterers,Restaurant delivery service,Chicken Wings,Food Delivery,American restaurants,Karaoke,Take Out Restaurants,Fast Food Restaurants,Home delivery beer and beverages,Family Style Restaurants,Restaurants,Pizza,Restaurant,Pizza Place,Catering",Columbus,40.09424,-83.087652,43235,OH,2015-10-23,2019-04-23,Pizza Hut,1278
59,AV1c5wuFRxPSIh2RYyMX,1221 Georgesville Rd,"Carry-out food,Caterers,Delicatessens,American restaurants,Take Out Restaurants,Fast Food Restaurants,Karaoke,Restaurants,Delis And Delicatessens,Department stores,Restaurant,Sandwiches,Catering,Sandwich Shops",Columbus,39.9279,-83.117,43228,OH,2017-07-19,2019-04-22,SUBWAY,642
60,AVwdvnT7IN2L1WUfyzNJ,3643 S High St,"Carry-out food,Caterers,Restaurant delivery service,Pizza Place South Columbus,American restaurants,Karaoke,Fast Food Restaurants,Take Out Restaurants,Home delivery beer and beverages,Family Style Restaurants,Restaurants,Pizza,Pizza Place,Barbecue,Catering",Columbus,39.8865,-82.9995,43207,OH,2016-04-02,2019-04-21,Pizza Hut,1114
61,AVwcv0dsIN2L1WUfocMe,1815 Morse Rd,"Breakfast Brunch and Lunch Restaurants,Coffee Shops,Coffee Shop,Coffee and Tea,Coffee and Espresso Restaurants,Fast Food Restaurant,Breakfast Brunch and Lunch Restaurants,,Cafes,Restaurants",Columbus,40.059873,-82.970603,43229,OH,2016-06-14,2019-04-19,Tim Hortons,1039
62,AVwc_f57ByjofQCxkYJA,6484 E Broad St,"Carry-out food,Diner, Breakfast Spot, and American Restaurant,Late Night Restaurants,Pancakes & Waffles Restaurants,American Restaurant,Breakfast & Brunch Restaurants,American restaurants,Restaurants,Restaurant,Breakfast Spot,Fast Food Restaurant,Diner,Diners,Breakfast Brunch & Lunch Restaurants",Columbus,39.981582,-82.828889,43213,OH,2016-03-30,2019-04-17,Waffle House,1113
63,AVweGhZRIN2L1WUf1_z0,6619 E Broad St,"Mexican Restaurant,Restaurant,Restaurant consultants,Mexican Restaurants,Tex-mex restaurants,Southwestern restaurants,Fast Food Restaurant,Latin American Restaurants,Family Style Restaurants,Restaurant mgmt.,Restaurants,Burrito Place",Columbus,39.980706,-82.827374,43213,OH,2016-04-03,2019-04-15,Hot Head Burritos,1107
64,AVwcm13Y_7pvs4fzw_MP,1140 Polaris Pkwy,"Carry-out food,Mexican Restaurants,Taco Place,Tex-mex restaurants,Southwestern restaurants,Take Out Restaurants,Fast Food Restaurants,Karaoke,Restaurants,Mexican Restaurant,Restaurant,Burrito Place,Gas and electric grills",Columbus,40.143953,-82.989366,43240,OH,2016-06-08,2019-04-15,Chipotle Mexican Grill,1041
65,AVwcfJzMkufWRAb5vqj7,1556 W Broad St,"Fried Chicken Joint,Fast Food Restaurant,Fried Chicken Joint and Fast Food Restaurant,Fried Chicken Joint and Fast Food Restaurant Franklinton",Columbus,39.957485,-83.042103,43222,OH,2015-10-23,2019-04-15,KFC,1270
66,AVwdd20vkufWRAb56MVb,4391 Old Roberts Rd,"Delis And Delicatessens,Restaurant,Sandwich Place Northwest Columbus,Sandwich Place Hilliard Green,Fast Food Restaurant,wich Place,Sandwich Place,Restaurants,Sandwich Shops",Columbus,40.001749,-83.113754,43228,OH,2016-04-05,2019-04-14,SUBWAY,1104
67,AVwdiQqx_7pvs4fz62Jv,4488 E Main St,"Carry-out food,Fried Chicken Joint and American Restaurant,Fried Chicken Joint,American Restaurant,Fried Chicken Joint and American Restaurant East Columbus,Take Out Restaurants,Fast Food Restaurants,Food and beverage consultants,Chicken Restaurants,Restaurants,Food processing and manufacturing,Barbecued poultry,Barbecue,Food facilities consultants,Spare rib restaurants",Columbus,39.955846,-82.878019,43213,OH,2015-11-02,2019-04-14,Church's Chicken,1259
68,AVwefAHEByjofQCxypac,298 S Hamilton Rd,"Hamburgers & Hot Dogs,Carry-out food,Restaurant consultants,Hot dog restaurants,Fast Food Restaurant Hunters Ridge,Fast Food Restaurant,Hamburger restaurants,Take Out Restaurants,Restaurant mgmt.,Fast food restaurants,Restaurants",Columbus,40.010716,-82.866547,43230,OH,2016-10-20,2019-04-13,McDonalds,905
69,AVwdOZIw_7pvs4fz3mGD,1851 Morse Rd,"Carry-out food,Mexican Restaurants,Taco Place,Tex-mex restaurants,Southwestern restaurants,Fast Food Restaurants,Take Out Restaurants,Karaoke,Restaurants,Mexican Restaurant,Online Information Retrieval,Mexican Restaurant, Burrito Place, and Taco Place,Burrito Place,Gas and electric grills",Columbus,40.0604,-82.9691,43229,OH,2015-11-08,2019-04-11,Chipotle Mexican Grill,1250
70,AVwcwxYGByjofQCxh52D,3942 Townsfair Way,"Breakfast,Cafe,Bakery,Caf,Take Out Restaurants,Health Food Restaurants,Fast Food,Bagel Shops,Restaurants,American Restaurants,Coffee Shops,Restaurant,Traditional American,wich Place,Coffeehouses,Bakeries,Catering,Sandwich Place,Caf√©,Sandwich Shops",Columbus,40.049258,-82.916792,43219,OH,2016-03-26,2019-04-10,Panera Bread,1110
71,AVwcjbpaIN2L1WUfmPrN,4375 Refugee Rd,"Carry-out food,Restaurant,Fried Chicken Joint,Barbecued poultry,Fried Chicken Joint Eastland,Fast Food Restaurants,Take Out Restaurants,Barbecue,Spare rib restaurants,Chicken restaurants,Catering,Restaurants",Columbus,39.915236,-82.880151,43232,OH,2015-10-23,2019-04-10,Church's Chicken,1265
72,AVwdmCGH_7pvs4fz7bQZ,1076 Parsons Ave,"Carry-out food,Caterers,Restaurant delivery service,Pizza Place South Columbus,American restaurants,Karaoke,Take Out Restaurants,Fast Food Restaurants,Home delivery beer and beverages,Restaurants,Pizza,Restaurant,Barbecue,Pizza Place",Columbus,39.94162,-82.982935,43206,OH,2015-10-23,2019-04-09,Pizza Hut,1264
73,AVzoNu_PFcQ3k02bC5Ov,4331 W Broad St,"Restaurant,American Restaurants,Carry-out food,Breakfast Spot,American Restaurant,Fast Food Restaurants,Diner,Family Style Restaurants,Restaurants",Columbus,39.952411,-83.116452,43228,OH,2017-06-27,2019-04-09,Bob Evans,651
74,AVweJDbLIN2L1WUf2WGz,95 N Hamilton Rd,"Carry-out food,Mexican Restaurants,Mexican,Taco Place,Tex-mex restaurants,Southwestern restaurants,Fast Food Restaurants,Take Out Restaurants,Restaurants,Mexican Restaurant,Mexican Restaurant, Burrito Place, and Taco Place East Columbus,Mexican Restaurant, Burrito Place, and Taco Place,Burrito Place",Columbus,40.019649,-82.866786,43230,OH,2015-11-02,2019-04-04,Chipotle Mexican Grill,1249
75,AVwcjoQeIN2L1WUfmR-d,2070 Morse Rd,"American Restaurants,Restaurant,Greek Restaurant,Taverns,Greek Restaurants,Bar and Grills,Mediterranean Restaurants,Take Out Restaurants,Fast Food Restaurants,Restaurants,Middle Eastern Restaurants",Columbus,40.060732,-82.964766,43229,OH,2016-04-02,2019-04-03,Gyro Express,1096
76,AVwcpwbEIN2L1WUfnZHF,4440 E Main St,"Carry-out food,Caterers,Restaurant delivery service,Chicken Wings,Food Delivery,American restaurants,Karaoke,Take Out Restaurants,Fast Food Restaurants,Home delivery beer and beverages,Family Style Restaurants,Restaurants,Pizza,Restaurant,Pizza Place,Barbecue,Pizza Place East Columbus,Catering",Columbus,39.9559,-82.88,43213,OH,2015-10-24,2019-04-01,Pizza Hut,1255
77,AVwctAxFkufWRAb5yHOO,4770 Saw Mill Rd,"Restaurant,Mexican Restaurants,Mexican,Breakfast,Vegetarian,Fast Food Restaurant,Fast Food Restaurants,Fast Food,Restaurants",Columbus,40.0663,-83.0926,43235,OH,2016-06-14,2019-04-01,Taco Bell,1021
78,AVwdgZgbIN2L1WUfwfWS,7190 Sawmill Rd,"Ice Cream Parlors,Carry-out food,Breakfast,Hot dog restaurants,Hamburger restaurants,Fast Food,Fast Food Restaurants,Take Out Restaurants,Fast Food Restaurant and Burger Joint,Restaurant mgmt.,Restaurants,Frozen Yogurt Shops,Hamburgers & Hot Dogs,Restaurant,Burger Joint,Restaurant consultants,Fast Food Restaurant,Coffeehouses,Salads,Hamburgers,Sandwich Shops",Columbus,40.1116,-83.0899,43235,OH,2016-06-20,2019-04-01,McDonalds,1015
79,AVwcySDtByjofQCxiKlC,363 S Hamilton Rd,"Carry-out food,Caterers,Tex-mex restaurants,Southwestern restaurants,Mexican restaurants,Take Out Restaurants,Fast Food Restaurants,Restaurants,professional,Mexican Restaurant, Burrito Place, and Taco Place East Columbus,Restaurant,Family style restaurants,Mexican Restaurant, Burrito Place, and Taco Place,Catering",Columbus,40.0267,-82.8659,43230,OH,2016-05-09,2019-04-01,Moe's Southwest Grill,1057
80,AVzBAJxe-gnIPe8DSgk6,85 Worthington Mall,"Breakfast,Food Delivery,Bakery,Caf,Take Out Restaurants,Health Food Restaurants,Fast Food,Restaurants,Restaurant,American Restaurants,Coffee Shops,Traditional American,wich Place,Coffeehouses,Bakeries,Catering,Sandwich Shops",Columbus,40.1084,-83.0193,43085,OH,2017-06-19,2019-04-01,Panera Bread,651
81,AVwclS1IIN2L1WUfml3y,5299 N Hamilton Rd,"Asian Restaurants,Chinese Restaurant,Restaurant,Chinese Restaurant and Asian Restaurant,Carry-out food,Chinese Restaurants,Asian Restaurant,Fast Food Restaurants,Take Out Restaurants,Restaurants",Columbus,40.0648,-82.8636,43230,OH,2016-06-20,2019-04-01,Panda Express,1015
82,AVwc_ON4kufWRAb51H-0,2040 N High St,"Restaurant,American Restaurants,Mexican Restaurants,Caterers,Take Out Restaurants,Fast Food Restaurants,Burrito Place, Mexican Restaurant, and Taco Place,Catering,Restaurants",Columbus,40.0038,-83.0088,43201,OH,2016-06-14,2019-04-01,Moe's Southwest Grill,1021
83,AVwelhiIIN2L1WUf6VPF,342 E Gay St,"Pizza,Restaurant,Food Delivery,Take Out Restaurants,Fast Food Restaurants,Pizza Place,Restaurants,Pizza Place Downtown Columbus",Columbus,39.9649,-82.9917,43215,OH,2016-03-28,2019-04-01,Dominos Pizza,1099
84,AV1goldw3-Khe5l_NhsD,1619 North High Street,"Breakfast,Bakery,Fast Food,Caf,Bagel Shops,Restaurants,Restaurant,Traditional American,wich Place,Coffeehouses,Bakeries,Catering,Sandwich Shops",Columbus,39.9951,-83.0074,43201,OH,2017-07-20,2019-04-01,Panera Bread,620
85,AVwdbBwlIN2L1WUfvp1m,171 E Campus View Blvd,"Asian Restaurants,Chinese Restaurant,Restaurant,Caterers,Chinese Restaurants,Asian Restaurant,Restaurant Delivery Service,Fast Food Restaurants,Bistros,Restaurants,Asian Restaurant and Chinese Restaurant Crosswoods",Columbus,40.1178,-83.0104,43235,OH,2015-10-23,2019-04-01,H C Way Asian Bistro,1256
86,AV1gomzMRxPSIh2RaSB7,2441 Lockbourne Rd,"Ice Cream Parlors,Carry-out food,Breakfast,Hot dog restaurants,Hamburger restaurants,Fast Food Restaurants,Take Out Restaurants,Fast Food,Restaurants,Frozen Yogurt Shops,Restaurant,Coffeehouses,Salads,Hamburgers and Hot Dogs,Hamburgers,Sandwich Shops",Columbus,39.9148,-82.9669,43207,OH,2017-07-20,2019-04-01,McDonalds,620
87,AVwcu5LIkufWRAb5ybIx,2181 E Livingston Ave,"Delis And Delicatessens,Restaurant,Carry-out food,Delicatessens,wich Place,Take Out Restaurants,Fast Food Restaurants,Sandwiches,Sandwich Place,Restaurants,Sandwich Shops",Columbus,39.9481,-82.9389,43209,OH,2016-03-28,2019-04-01,SUBWAY,1099
88,AVwcf1nTkufWRAb5vyyg,3657 E Main St,"Delis And Delicatessens,wich Place,Take Out Restaurants,Fast Food Restaurants,optometrists,Sandwich Place,Restaurants,Sandwich Shops",Columbus,39.9557,-82.9017,43213,OH,2016-03-28,2019-04-01,SUBWAY,1099
89,AVwc9HDZByjofQCxj_4u,8675 Sancus Blvd,"Delis And Delicatessens,Restaurant,Carry-out food,Delicatessens,wich Place,Take Out Restaurants,Fast Food Restaurants,Sandwiches,Sandwich Place,Restaurants,Sandwich Shops",Columbus,40.1411,-82.9912,43240,OH,2016-04-01,2019-04-01,SUBWAY,1095
90,AVweJScEByjofQCxvqbf,1455 Cassady Ave,"Ice Cream Parlors,Breakfast,Burgers,Fast Food,Coffeehouses,Salads,Hamburgers,Restaurants,Frozen Yogurt Shops,Sandwich Shops",Columbus,40.0,-82.9307,43219,OH,2015-11-19,2019-04-01,McDonalds,1229
91,AVwcvSZ6kufWRAb5yflf,1035 Polaris Pkwy,"Pizza,Restaurant,Food Delivery,Take Out Restaurants,Fast Food Restaurants,Pizza Place,Pizza Place Polaris,Restaurants,Pizza Place and Fried Chicken Joint",Columbus,40.1456,-82.9938,43240,OH,2016-04-20,2019-04-01,Dominos Pizza,1076
92,AVwcn7jGIN2L1WUfnEQJ,163 N High St,"Delis And Delicatessens,Restaurant,Carry-out food,Delicatessens,wich Place,Take Out Restaurants,Fast Food Restaurants,Sandwiches,Sandwich Place,Restaurants,Sandwich Shops",Columbus,39.9657,-83.0015,43215,OH,2016-03-28,2019-04-01,SUBWAY,1099
93,AVweCQX1_7pvs4fz_dsN,5352 N Hamilton Rd,"Carry-out food,Delicatessens,Wholesale salads,Ice cream and frozen desserts-wholesale and manufacturers,Take Out Restaurants,Fast Food Restaurants,Restaurants,Delis And Delicatessens,Restaurant,wich Place,Sandwiches,Sandwich Place,Sandwich Shops",Columbus,40.0655,-82.863,43230,OH,2016-07-06,2019-04-01,SUBWAY,999
94,AVwcy6Zu_7pvs4fzzDHk,323 N 20th St,"Delis And Delicatessens,Carry-out food,Restaurant,Delicatessens,Take Out Restaurants,Fast Food Restaurants,Karaoke,Sandwiches,Sandwich Place,Restaurants,Sandwich Shops",Columbus,39.9732,-82.9733,43203,OH,2016-04-02,2019-04-01,SUBWAY,1094
95,AVwd9_P9kufWRAb5-1pE,6001 E Broad St,"Carry-out food,Caterers,Delicatessens,American restaurants,Fast Food Restaurants,Take Out Restaurants,Restaurants,Delis And Delicatessens,Restaurant,Sandwiches,Catering,Sandwich Place,Sandwich Shops",Columbus,39.9792,-82.8436,43213,OH,2016-07-20,2019-04-01,SUBWAY,985
96,AVwdatPZByjofQCxo5Pt,5125 E Main St,"Asian Restaurants,Restaurant,Caterers,Seafood Restaurants,Chinese Restaurants,Thai Restaurants,Take Out Restaurants,Fast Food Restaurants,Family Style Restaurants,Catering,Restaurants",Columbus,39.955,-82.8605,43213,OH,2016-02-17,2019-04-01,Hunan Gourmet Restaurant,1139
97,AVwd0oF0_7pvs4fz9k6b,771 Bethel Rd,"Carry-out food,Mexican,Taco Place,Tex-mex restaurants,Southwestern restaurants,Mexican restaurants,Take Out Restaurants,Fast Food Restaurants,Restaurants,Mexican Restaurant,Restaurant,Mexican Restaurant, Burrito Place, and Taco Place,Burrito Place",Columbus,40.0626,-83.0412,43214,OH,2016-04-03,2019-04-01,Chipotle Mexican Grill,1093
98,AV-VwUo4a4HuVbedGeg0,6943 E Broad St,"Asian Restaurants,Carry-out food,Steak and chop restaurants,Fast Food Restaurants,Japanese restaurants,Barbecue,Spare rib restaurants,Take out restaurants,Restaurants",Columbus,39.9822,-82.8186,43213,OH,2017-11-07,2019-04-01,Genji Go,510
99,AVzdssQr-gnIPe8DTgvB,1634 Northwest Blvd,"Asian Restaurants,Carry-out food,Restaurant,Vietnamese Restaurant,Vietnamese Restaurants,Asian Restaurant,Take Out Restaurants,Fast Food Restaurants,Restaurants,Chinese restaurants",Columbus,39.9918,-83.0402,43212,OH,2017-06-25,2019-03-31,Nong's Hunan Express,644
101,AVwc_QuD_7pvs4fz1FMl,4542 Cleveland Ave,"Carry-out food,Take Out,Caterers,Take Out Restaurants,Fast Food Restaurants,Family Style Restaurants,Restaurants,Asian Restaurants,Restaurant,Seafood Restaurants,Food & Beverage Delivery Services,Catering,Chinese restaurants",Columbus,40.0621,-82.9526,43231,OH,2016-04-03,2019-03-31,Golden Phoenix Restaurant,1092
102,AVwdwv07ByjofQCxsQsL,5328 N High St,"Restaurant,Caterers,Greek Restaurant,Greek Restaurants,Turkish restaurants,Mediterranean Restaurants,Fast Food Restaurants,Take Out Restaurants,Armenian restaurants,Restaurants",Columbus,40.0713,-83.0188,43214,OH,2016-04-02,2019-03-31,Acropolis Gyro Palace,1093
103,AVwcwJ0mIN2L1WUfof95,1051 Gemini Pl,"Asian Restaurants,American Restaurants,Restaurant,Japanese Restaurants,Seafood Restaurants,Sushi Restaurant,Korean Restaurants,Take Out Restaurants,Fast Food Restaurants,Sushi Bars,Restaurants",Columbus,40.1467,-82.987,43240,OH,2016-03-28,2019-03-31,SUSHI EN,1098
104,AVzoFqpMFcQ3k02bCzX3,1455 Olentangy River Rd,"Restaurant,American Restaurants,Carry-out food,Breakfast,American Restaurant,Family Style Dining,Fast Food Restaurants,Family Style Restaurants,Restaurants",Columbus,39.9898,-83.0264,43212,OH,2017-06-27,2019-03-31,Bob Evans,642
105,AVwect5z_7pvs4fzDFHE,2038 Bethel Rd,"Asian Restaurants,Restaurant,Caterers,Chinese Restaurants,Cocktail Lounges,Bar & Grills,Fast Food Restaurants,Take Out Restaurants,Catering,Restaurants",Columbus,40.0644,-83.0708,43220,OH,2015-11-19,2019-03-31,Hunan Lion Gourmet Chinese,1228
106,AVwdG-qR_7pvs4fz2WXs,1100 Cleveland Ave,"Southern / Soul Food Restaurant and Fried Chicken Joint,Fried Chicken Joint,Take Out Restaurants,Fast Food Restaurants,Southern / Soul Food Restaurant,Chicken Restaurants,Catering,Restaurants",Columbus,39.9867,-82.9887,43201,OH,2015-10-20,2019-03-31,Church's Chicken,1258
107,AVwdMQTr_7pvs4fz3Oj2,3591 W Broad St,"Restaurant,Caterers,Greek Restaurant,Greek Restaurant and Eastern European Restaurant,Greek Restaurants,Mediterranean Restaurants,Eastern European Restaurant,Take Out Restaurants,Fast Food Restaurants,Restaurants",Columbus,39.953548,-83.096183,43228,OH,2015-10-23,2019-03-28,1 Gyro Shoppe,1252
108,AVwd1i8lIN2L1WUfzpqi,1000 N High St,"Carry-out food,Mexican Restaurants,Taco Place,Tex-mex restaurants,Mexican Restaurant, Burrito Place, and Taco Place Glen Echo,Southwestern restaurants,Take Out Restaurants,Fast Food Restaurants,Karaoke,Restaurants,Mexican Restaurant,Mexican Restaurant, Burrito Place, and Taco Place Short North,Burrito Place",Columbus,39.982757,-83.004459,43201,OH,2015-09-13,2019-03-28,Chipotle Mexican Grill,1292
109,AVweVVirIN2L1WUf4Agq,3747 E Broad St,"Hamburgers & Hot Dogs,Take Out Restaurants,Fast Food Restaurants,Breakfast Brunch and Lunch Restaurants,,Breakfast Brunch & Lunch Restaurants,,Family Style Restaurants,Hamburgers and Hot Dogs,Restaurants,Food",Columbus,39.973351,-82.90105,43213,OH,2016-04-02,2019-03-26,Jam Restaurants,1088
110,AVwee9mBIN2L1WUf5W3D,1519 Schrock Rd,"Ice Cream Parlors,Restaurant,Ice Cream Shop, Dog Run, and Airport,Ice Cream Shop, Dog Run, and Airport Devonshire,Airport,Fast Food Restaurant,Ice Cream Store,Dog Run,Restaurants,Ice Cream Shop",Columbus,40.104914,-82.975618,43229,OH,2015-10-23,2019-03-26,Dairy Queen,1250
111,AVwd-VRmIN2L1WUf03ti,2350 E Dublin Granville Rd,"Natural food restaurants,Carry-out food,Caterers,Seafood restaurants,Chinese Restaurants,Take Out Restaurants,Fast Food Restaurants,Family Style Restaurants,Restaurants,Asian Restaurants,Juice bars,Chinese Restaurant,Vegetarian restaurants,Thai restaurants,Health food restaurants",Columbus,40.086678,-82.955685,43229,OH,2015-10-23,2019-03-26,Hunan House,1250
112,AVwdKEYIByjofQCxmFjD,3089 E Main St,"Carry-out food,Caterers,Restaurant delivery service,American restaurants,Karaoke,Take Out Restaurants,Fast Food Restaurants,Home delivery beer and beverages,Family Style Restaurants,Pizza Place Eastmoor,Restaurants,Pizza,Pizza Place,Barbecue",Columbus,39.956268,-82.91589,43209,OH,2015-10-23,2019-03-22,Pizza Hut,1246
113,AVwcfr8b_7pvs4fzvsLW,1340 N Hamilton Rd,"Carry-out food,Caterers,Delicatessens,American Restaurant,Take Out Restaurants,Fast Food Restaurants,Deli / Bodega,Restaurants,Delis And Delicatessens,Sandwich Place and American Restaurant,Sandwich shops,American Restaurant and Sandwich Place,wich Place,Sandwiches,Catering,Sandwich Place",Columbus,40.05364,-82.86223,43230,OH,2015-09-13,2019-03-22,Jersey Mikes Subs,1286
114,AVwc-nAv_7pvs4fz0-Ve,331 S Hamilton Rd,"Carry-out food,Caterers,Restaurant delivery service,Delicatessens,Fast Food Restaurants,Home delivery beer and beverages,Sandwiches,Sandwich Place,Sandwich Place East Columbus,Restaurants,Sandwich Shops",Columbus,40.01058131,-82.86764039,43230,OH,2016-02-16,2019-03-22,Jimmy Johns,1130
115,AVweQEFPIN2L1WUf3TGb,406 Granville St,"Carry-out food,Caterers,Delicatessens,American restaurants,Take Out Restaurants,Fast Food Restaurants,Karaoke,Restaurants,Restaurant,Food East Columbus,wich Place,Sandwiches,Food,Sandwich Shops",Columbus,40.018692,-82.86702,43230,OH,2015-10-20,2019-03-14,Firehouse Subs,1241
117,AVweTpNwkufWRAb5ByRy,2467 S Hamilton Rd,"Carry-out food,Restaurant,Food and Beverage,Fast Food Restaurant, American Restaurant, and Sandwich Place,Fast Food Restaurant,American Restaurant,wich Place,American restaurants,Karaoke,Fast Food Restaurant, American Restaurant, and Sandwich Place Eastland,Restaurants,Fast Food Restaurant and American Restaurant Eastland",Columbus,39.923849,-82.88054,43232,OH,2016-10-20,2019-02-01,Arby's,834
119,AVwc5Ok5kufWRAb50J3S,1546 Lockbourne Rd,"Asian Restaurants,Restaurant,Chinese Restaurant South Columbus,American restaurants,Fast Food Restaurants,Restaurants,Chinese restaurants",Columbus,39.933702,-82.963597,43207,OH,2015-10-23,2019-01-27,China Bear,1192
120,AVwdSaZG_7pvs4fz4Sds,960 Oakland Park Ave,"Ice Cream Parlors,Carry-out food,American restaurants,Ice Cream Store,Fast Food,Ice cream and frozen desserts-retail,Ice Cream Shop North Linden,Restaurants,Ice Cream Shop",Columbus,40.0327,-82.9885,43224,OH,2015-10-23,2018-12-25,Dairy Queen,1159
121,AVwdrRCL_7pvs4fz8Ps1,220 Easton Town Ctr,"Burger Joint,Restaurant,American Restaurant,Fast Food Restaurant,Burger Joint and American Restaurant Easton,Restaurants,Burger Joint and American Restaurant",Columbus,40.0499,-82.9155,43219,OH,2015-10-23,2018-12-25,Five Guys,1159
122,AVweX5mQkufWRAb5CWgy,1860 Hard Rd,"Delis And Delicatessens,Restaurant,Carry-out food,Delicatessens,Take Out Restaurants,Fast Food Restaurants,Sandwiches,Restaurants,Sandwich Shops",Columbus,40.1176,-83.0886,43235,OH,2017-01-15,2018-12-25,SUBWAY,709
123,AVwc9UrgByjofQCxkCIE,1405 N Cassady Ave,"Restaurant,Breakfast Spot,Carry-out food,Coffee Shop,Fast Food Restaurant,American Restaurant,American restaurants,Diner,Diners,Restaurants",Columbus,39.998379,-82.930226,43219,OH,2016-04-01,2018-12-25,Waffle House,998
124,AVweHvdUkufWRAb5ALnN,3200 N High St,"Delis And Delicatessens,Carry-out food,Delicatessens,wich Place,Take Out Restaurants,Fast Food Restaurants,Sandwiches,Sandwich Place,Restaurants,Sandwich Shops",Columbus,40.02728,-83.01435,43202,OH,2016-03-31,2018-12-25,SUBWAY,999
127,AVwdwU-BByjofQCxsM6N,2000 Bethel Rd,"Natural food restaurants,Carry-out food,Caterers,Seafood restaurants,Chinese Restaurants,Fast Food Restaurants,Take Out Restaurants,Karaoke,Restaurants,Asian Restaurants,Gourmet shops,Juice bars,Vegetarian restaurants,Cocktail Lounges,Bar & Grills,Hunan Restaurants,Gourmet shop restaurants,Thai restaurants,Food & Beverage Delivery Services,Health food restaurants,Gourmet Restaurants",Columbus,40.064382,-83.070841,43220,OH,2016-02-16,2018-12-24,Hunan Lion Gourmet Chinese Dining,1042
128,AVwcg0qeIN2L1WUflwe1,1320 W Lane Ave,"Carry-out food,Delicatessens,wich Place,Sandwich Place West Campus,Fast Food Restaurants,Take Out Restaurants,Sandwiches,Sandwich Place,Restaurants,Sandwich Shops",Columbus,40.00716,-83.04653,43221,OH,2016-04-05,2018-12-23,SUBWAY,992
129,AVwdpEciByjofQCxrIDF,4424 Alum Creek Dr,"Restaurant,Carry-out food,Delicatessens,Columbus Restaurants,Take Out Restaurants,Fast Food Restaurants,Sandwiches,Sandwich Place,Restaurants,Sandwich Shops",Columbus,39.877136,-82.930673,43207,OH,2016-03-28,2018-12-23,SUBWAY,1000
131,AVwdoL3sByjofQCxq_S7,890 E Dublin Granville Rd,"Carry-out food,Caterers,Restaurant delivery service,American restaurants,Karaoke,Take Out Restaurants,Fast Food Restaurants,Home delivery beer and beverages,Family Style Restaurants,Restaurants,Pizza,Restaurant,Pizza Place Busch,Barbecued poultry,Pizza Place,Barbecue,Spare rib restaurants,Chicken restaurants",Columbus,40.087983,-82.994718,43229,OH,2015-10-20,2018-12-22,Pizza Hut,1159
132,AVwdmayqkufWRAb57e_Y,1122 Gemini Pl,"Restaurant,Carry-out food,Caterers,Delicatessens,American Restaurant,Fast Food Restaurants,Take Out Restaurants,Family Style Restaurants,Deli / Bodega,Restaurants,Sandwich Shops",Columbus,40.14776,-82.98822,43240,OH,2015-11-18,2018-12-21,Jason's Deli,1129
133,AVwczMZg_7pvs4fzzGQE,3566 Riverside Dr,"Carry Out Food,Sandwich,Restaurant,Fast Food Restaurant,wich Place,Caterer,Sandwich Place,Restaurants",Columbus,40.026194,-83.090809,43221,OH,2015-10-23,2018-12-16,SUBWAY,1150
135,AVweEBP4ByjofQCxu8gv,1905 Henderson Rd,"Restaurant,Carry-out food,Hot dog restaurants,Fast Food Restaurant,Hamburger restaurants,Restaurants",Columbus,40.055192,-83.070068,43220,OH,2016-03-31,2018-12-14,McDonalds,988
136,AVwc-hVZIN2L1WUfq7bY,1059 S High St,"Delis And Delicatessens,Restaurant,Carry-out food,Delicatessens,wich Place,Take Out Restaurants,Fast Food Restaurants,Sandwiches,Sandwich Place,Restaurants,Sandwich Shops",Columbus,39.940447,-82.996769,43206,OH,2015-10-23,2018-12-08,SUBWAY,1142
137,AVwdfn1YkufWRAb56cbc,5137 E Main St,"Delis And Delicatessens,Restaurant,Carry-out food,Delicatessens,Columbus Restaurants,Take Out Restaurants,Fast Food Restaurants,Sandwiches,Sandwich Place,Restaurants,Sandwich Shops",Columbus,39.954463,-82.860193,43213,OH,2016-04-02,2018-12-08,SUBWAY,980
138,AVwdpS8wkufWRAb577IG,1661 Morse Rd,"Hamburgers & Hot Dogs,Carry-out food,Hot dog restaurants,Hamburger restaurants,Take Out Restaurants,Fast Food Restaurants,Karaoke,Restaurants",Columbus,40.06049,-82.97539,43229,OH,2016-04-02,2018-12-07,McDonalds,979
140,AVwdv7K9kufWRAb585iL,8932 E 38th St,"Pizza,Restaurant,Chicken Wings,Food Delivery,Fast Food Restaurants,Take Out Restaurants,Pizza Place Far Eastside,Pizza Place,Family Style Restaurants,Restaurants",Indianapolis,39.8265,-86.0105,46226,IN,2015-10-23,2019-05-19,Pizza Hut,1304
141,AVweHFQmkufWRAb5AF3K,4533 S Emerson Ave,"Carry-out food,Caterers,Restaurant delivery service,Chicken Wings,Food Delivery,American restaurants,Karaoke,Take Out Restaurants,Fast Food Restaurants,Home delivery beer and beverages,Family Style Restaurants,Restaurants,Pizza,Restaurant,Pizza Place,Catering",Indianapolis,39.7013,-86.082,46203,IN,2015-10-19,2019-05-18,Pizza Hut,1307
142,AVwdnmu4ByjofQCxq5ii,4430 Mann Rd,"Pizza,Restaurant,Food Delivery,Take Out Restaurants,Fast Food Restaurants,Pizza Place Mars Hill,Pizza Place,Restaurants",Indianapolis,39.6999,-86.2416,46221,IN,2015-10-22,2019-05-18,Dominos Pizza,1304
149,AV0It4mMLD2H7whiYYBj,8812 Us 31 S Ste D,"Carry-out food,Mexican Restaurants,Taco Place,Tex-mex restaurants,Southwestern restaurants,American restaurants,Mexican restaurants,Karaoke,Take Out Restaurants,Fast Food Restaurants,Restaurants,Mexican Restaurant,Burrito Place",Indianapolis,39.63786,-86.12871,46227,IN,2017-07-03,2019-05-16,Chipotle Mexican Grill,682
152,AVwcw9SXByjofQCxh8AN,7815 Us 31 S,"Hamburgers & Hot Dogs,Carry-out food,Hot dog restaurants,American restaurants,Hamburger restaurants,Fast Food Restaurants,Hamburgers and Hot Dogs,Restaurants",Indianapolis,39.65311,-86.13904,46227,IN,2016-04-05,2019-05-16,Five Guys Burgers Fries,1136
158,AVwdAy-r_7pvs4fz1VcZ,7620 S Meridian St,"Carry-out food,Caterers,Restaurant delivery service,American restaurants,Karaoke,Take Out Restaurants,Fast Food Restaurants,Home delivery beer and beverages,Family Style Restaurants,Restaurants,Pizza,Restaurant,Pizza Place",Indianapolis,39.655284,-86.158944,46217,IN,2015-10-23,2019-05-16,Pizza Hut,1301
159,AVwdyQk2ByjofQCxse9k,2624 Lake Circle Dr,"Carry-out food,Caterers,Restaurant delivery service,Delicatessens,American restaurants,Home delivery beer and beverages,Restaurants,Delis And Delicatessens,Restaurant,Fast Food Restaurant,wich Place,Sandwiches,Sandwich Place",Indianapolis,39.913311,-86.206072,46268,IN,2015-10-20,2019-05-16,Jimmy Johns,1304
160,AVwce27xByjofQCxet-0,7875 W 10th St,"Pizza,Restaurant,Food Delivery,Pizza Place Chapel Hill - Ben Davis,Take Out Restaurants,Fast Food Restaurants,Pizza Place,Restaurants",Indianapolis,39.7787,-86.3001,46214,IN,2015-09-21,2019-05-15,Dominos Pizza,1332
161,AVwcjAEFByjofQCxfdZS,410 Massachusetts Ave,"Restaurant delivery service,Taverns,American restaurants,Hamburger restaurants,Fast Food Restaurants,Burger Restaurants,Home delivery beer and beverages,Restaurant Referral Services & Guides,Brew Pubs,Bars Clubs,Burger Joint,Dinner theatre restaurants,Barbecue Restaurants,Food & Beverage Delivery Services,Barbecue,Hot dog restaurants,Take Out Restaurants,Karaoke,Family Style Restaurants,Restaurants,Restaurant,Bar and Grills,Bar and grill restaurants,Family style restaurants,Hamburgers and Hot Dogs,Family Restaurants,Sandwich Shops,Bars",Indianapolis,39.7727,-86.1523,46204,IN,2016-03-26,2019-05-15,Bru Burger Bar,1145
162,AVwdIceoByjofQCxl0Rr,4537 N Shadeland Ave,"Pizza,Restaurant,Chicken Wings,Food Delivery,Take Out Restaurants,Fast Food Restaurants,Diner,Family Style Restaurants,Pizza Place,Catering,Restaurants",Indianapolis,39.8396,-86.0456,46226,IN,2015-09-21,2019-05-15,Pizza Hut,1332
163,AVwcricfIN2L1WUfntMk,6255 E 82nd St,"Carry-out food,Pizza Restaurants,Caterers,Restaurant delivery service,Chicken Wings,Food Delivery,American restaurants,Karaoke,Take Out Restaurants,Fast Food Restaurants,Home delivery beer and beverages,Family Style Restaurants,Restaurants,Pizza Delivery,Pizza,Restaurant,Barbecue,Pizza Place,Catering,Family Restaurants",Indianapolis,39.905,-86.0593,46250,IN,2016-06-13,2019-05-15,Pizza Hut,1066
164,AVwcvKuwIN2L1WUfoUxE,55 W South St,"Restaurant,Burger Joint,Fast Food Restaurant,American Restaurant,Restaurants",Indianapolis,39.7611,-86.1597,46225,IN,2016-03-28,2019-05-15,White Castle,1143
165,AV1c1fHx3-Khe5l_L0td,3359 W Morris St,"Mexican Restaurant,Restaurant,Mexican Restaurants,Mediterranean Restaurants,Latin American Restaurants,Take Out Restaurants,Fast Food Restaurants,Restaurants",Indianapolis,39.75,-86.2158,46241,IN,2017-07-19,2019-05-15,Burrito Joint,665
166,AVwdzt25_7pvs4fz9ctg,9650 Allisonville Rd,"Food Service,Environmental and Ecological Consultants,Bakery,American restaurants,Restaurants,Breakfast Spot,Restaurant,Environmental and Ecological Products and Services,Environmental Conservation and Ecological Organizations,Fast Food Restaurant,Eastern European Restaurant,Environmental and ecological services,Bakeries",Indianapolis,39.9279,-86.0654,46250,IN,2016-03-26,2019-05-15,Kolache Factory,1145
167,AVzA9F203D1zeR_xBB0o,1439 E 86th St,"Carry-out food,Mexican Restaurants,Mexican,Breakfast,Tex-mex restaurants,Southwestern restaurants,Vegetarian,American restaurants,Fast Food Restaurants,Karaoke,Fast Food,Restaurants,Mexican Restaurant,Restaurant,Fast Food Restaurant",Indianapolis,39.9121,-86.1353,46240,IN,2017-06-19,2019-05-14,Taco Bell,694
169,AVzA-oMJLD2H7whiWIhI,4625 E 96th St,"Carry-out food,Caterers,Mexican,Taco Place,Tex-mex restaurants,Southwestern restaurants,American restaurants,Mexican restaurants,Take Out Restaurants,Fast Food Restaurants,Restaurants,Mexican Restaurant,Burrito Place",Indianapolis,39.9264,-86.0903,46240,IN,2017-06-19,2019-05-14,Chipotle Mexican Grill,694
170,AVwc07h8kufWRAb5zcZB,2222 W Southport Rd,"Grill Restaurants,Caterers,Hot dog restaurants,American restaurants,Hamburger restaurants,Take Out Restaurants,Fast Food Restaurants,Karaoke,Family Style Restaurants,Restaurants,Burger Joint,Hot Dog Stands and Restaurants,Night Clubs,Bar and Grills,wich Place,Hamburgers and Hot Dogs,Catering,Sandwich Place,Bars,Sandwich Shops",Indianapolis,39.6649,-86.1984,46217,IN,2015-11-04,2019-05-14,Teddy's Burger Joint,1287
171,AVzA9F-oFcQ3k02bBZSe,5301 W Washington St,"Burger Joint,Restaurant,Fast Food Restaurant,Restaurants",Indianapolis,39.7523,-86.2509,46241,IN,2017-06-19,2019-05-13,White Castle,693
173,AV1tiWId3-Khe5l_OyS9,2502 Dr Martin Luther King Jr St,"Catering Companies,Fried Chicken Joint,Southern & Soul Restaurants,Take Out Restaurants,Fast Food Restaurants,Chicken Restaurants,Traditional American Restaurants,Catering,Restaurants",Indianapolis,39.8029,-86.1705,46208,IN,2017-07-23,2019-05-13,Church's Chicken,659
174,AVwcuaTckufWRAb5yWBU,4070 Pendleton Way,"Pizza,Restaurant,Take Out,Pizza Restaurants,Food Delivery,Take Out Restaurants,Fast Food Restaurants,Pizza Place,Restaurants,Pizza Delivery",Indianapolis,39.8306,-86.0369,46226,IN,2015-10-19,2019-05-12,Dominos Pizza,1301
175,AVweCpGs_7pvs4fz_haE,4405 Blue Ribbon Rd,"Hamburgers & Hot Dogs,American Restaurants,Take Out Restaurants,Fast Food Restaurants,Breakfast Brunch and Lunch Restaurants,,Breakfast Brunch & Lunch Restaurants,,General Contractors,Family Style Restaurants,Hamburgers and Hot Dogs,Restaurants,Sandwich Shops",Indianapolis,39.70358,-86.06773,46203,IN,2016-06-14,2019-05-12,"Big Boy's Construction, Inc.",1062
176,AVwdF1FOIN2L1WUfsHSw,5438 W 86th St,"Restaurant,Greek Restaurant,Greek Restaurants,Turkish restaurants,Mediterranean Restaurants,Greek Restaurant Park 100,Fast Food Restaurants,Armenian restaurants,Greek restaurants,Restaurants",Indianapolis,39.9109,-86.2562,46268,IN,2016-03-26,2019-05-11,Gyro Stop,1141
177,AVwc1AJ_ByjofQCxio6k,4250 E Southport Rd,"Carry-out food,Caterers,Fried Chicken Joint,American restaurants,Restaurants,Restaurant,Barbecued poultry,Fast Food Restaurant,Barbecue,Spare rib restaurants,Catering,Chicken restaurants,Fried Chicken Joint Edgewood",Indianapolis,39.6661,-86.0945,46237,IN,2015-09-21,2019-05-11,KFC,1328
178,AVwcrP9kIN2L1WUfnpwO,3516 W 86th St,"Carry-out food,Caterers,Delicatessens,American Restaurant,American restaurants,Fast Food Restaurants,Take Out Restaurants,Karaoke,Restaurants,Delis And Delicatessens,Restaurant,Sandwich Place and American Restaurant,wich Place,Family style restaurants,American Restaurant College Park,Sandwiches,Sandwich Place,Sandwich Shops",Indianapolis,39.9123,-86.221,46268,IN,2015-10-20,2019-05-11,Firehouse Subs,1299
179,AVwde7kZ_7pvs4fz6Vjg,1953 N College Ave,"American Restaurants,Restaurant,Caterers,Fast Food Restaurants,Breakfast Brunch and Lunch Restaurants,,catering companies,Breakfast Brunch & Lunch Restaurants,,Hamburgers and Hot Dogs,Catering,Restaurants,Sandwich Shops",Indianapolis,39.7938,-86.1447,46202,IN,2014-10-14,2019-05-11,Grub House,1670
180,AVwea5W9_7pvs4fzCz-5,8512 E Washington St,"Asian Restaurants,Restaurant,Caterers,Seafood Restaurants,Chinese Restaurants,American restaurants,Take Out Restaurants,Fast Food Restaurants,Family Style Restaurants,Catering,Restaurants,Chinese restaurants",Indianapolis,39.7735,-86.0176,46219,IN,2016-04-04,2019-05-10,Yen Ching Restaurant,1131
181,AVwegS-BByjofQCxy1wu,6260 Intech Commons Dr,"Carry-out food,Caterers,Restaurant delivery service,Delicatessens,Delivery service,American restaurants,Fast Food Restaurants,Food Delivery Service,Home delivery beer and beverages,Sandwiches,Restaurants,Sandwich Shops",Indianapolis,39.878662,-86.27097,46278,IN,2016-08-17,2019-05-07,Jimmy Johns,993
182,AVwcpRJH_7pvs4fzxaCI,7215 Michigan Rd,"Restaurant,Carry-out food,Caterers,Fried Chicken Joint,Barbecued poultry,Fast Food Restaurant,American restaurants,Barbecue,Spare rib restaurants,Chicken restaurants,Restaurants",Indianapolis,39.88586,-86.209743,46268,IN,2016-06-20,2019-05-07,KFC,1051
183,AVwdN6GTIN2L1WUftcca,6320 W 38th St,"Restaurant,Carry-out food,Fast Food Restaurant,Ice cream parlors,American restaurants,Ice Cream Store,Restaurants,Ice Cream Shop",Indianapolis,39.823592,-86.270377,46254,IN,2015-10-20,2019-05-07,Dairy Queen,1295
184,AVwdMHWk_7pvs4fz3M3Q,1930 E Southport Rd,"Ice Cream Parlors,Restaurant,Carry-out food,American restaurants,Ice cream parlors,Fast Food,Ice cream and frozen desserts-retail,Restaurants,Ice Cream Shop",Indianapolis,39.6652,-86.1261,46227,IN,2015-10-23,2019-05-07,Dairy Queen,1292
185,AVwci3e5ByjofQCxfb1k,1024 Fletcher Ave,"Ice Cream Parlors,Natural food restaurants,Carry-out food,Ice cream parlors,American restaurants,Fast Food Restaurants,Ice Cream Store,Karaoke,Family Style Restaurants,Juice Smoothie Shops,Restaurants,Ice Cream Shop,Juice bars,American Restaurants,Ice Cream and Frozen Desserts,Restaurant,Vegetarian restaurants,Fast Food Restaurant,Dessert Restaurants,Ice cream and frozen desserts-retail,Health food restaurants,Hamburgers and Hot Dogs",Indianapolis,39.75799,-86.14001,46203,IN,2015-10-19,2019-05-05,Dairy Queen,1294
186,AVwePxDbkufWRAb5BQ1W,5941 E 86th St,"Carry-out food,International restaurants,Take Out,Middle Eastern Restaurant,Irish Restaurants,American restaurants,Irish restaurants,Fast Food Restaurants,Take Out Restaurants,Breakfast Brunch and Lunch Restaurants,,Middle Eastern Restaurant and Mediterranean Restaurant Castleton,Take out restaurants,Restaurants,Mediterranean Restaurant,Coffee Shops,Restaurant,Mediterranean Restaurants,Middle Eastern Restaurant and Mediterranean Restaurant,Breakfast Brunch & Lunch Restaurants,,Middle eastern restaurants,Cafeterias,Mediterranean restaurants",Indianapolis,39.912109,-86.06783,46250,IN,2015-09-21,2019-05-05,Mediterrano Cafe,1322
187,AVweW0-AByjofQCxxfUs,7639 S Meridian St,"Ice Cream Parlors,Restaurant,Carry-out food,Fast Food Restaurant,American restaurants,Ice cream parlors,Restaurants,Ice Cream Shop,Ice Cream Shop and Fast Food Restaurant",Indianapolis,39.654598,-86.157915,46217,IN,2015-10-23,2019-05-05,Dairy Queen,1290
188,AVwc7nEGIN2L1WUfqdfJ,6450 E 82nd St,"Pizza,Italian Restaurant,Carry-out food,Fast Food Restaurant,American restaurants,Take Out Restaurants,Pasta,Family Style Restaurants,Italian Restaurant, Pizza Place, and Fast Food Restaurant,Pizza Place,Restaurants,Italian Restaurants",Indianapolis,39.905737,-86.055696,46250,IN,2015-11-21,2019-05-01,Fazoli's,1257
189,AVwcfQ6g_7pvs4fzvnDI,430 Massachusetts Ave,"Restaurant,Fast Food Restaurant,Sandwich Place",Indianapolis,39.773536,-86.152399,46204,IN,2015-09-13,2019-05-01,SUBWAY,1326
190,AVwdlKhl_7pvs4fz7Sfd,305 W Washington St,"Delis And Delicatessens,Restaurant,Sandwich Place Downtown Indianapolis,Carry-out food,Delicatessens,Fast Food Restaurant,American restaurants,Karaoke,Sandwiches,Sandwich Place,Restaurants,Sandwich Shops",Indianapolis,39.767173,-86.163746,46204,IN,2016-04-01,2019-04-28,SUBWAY,1122
191,AV1tb8es3-Khe5l_OZHD,3810 W Washington St,"Carry-out food,Hot dog restaurants,Seafood restaurants,Steak and chop restaurants,Ice cream parlors,American restaurants,Hamburger restaurants,Karaoke,Restaurants,Restaurant,Barbecue,Fast food restaurants,Spare rib restaurants",Indianapolis,39.760691,-86.226227,46241,IN,2017-07-23,2019-04-27,Steak 'n Shake,643
192,AV4_Q-rYa4HuVbedAsxq,6985 W 38th St Ste 500,"Carry-out food,Caterers,Delicatessens,American restaurants,Take Out Restaurants,Fast Food Restaurants,Sandwiches,Restaurants,Sandwich Shops",Indianapolis,39.82173,-86.28274,46254,IN,2017-09-01,2019-04-25,Jersey Mikes Subs,601
193,AVwdUMNAByjofQCxn0Be,4501 S Emerson Ave,"Ice Cream Parlors,Carry-out food,Hot dog restaurants,Seafood restaurants,Steak and chop restaurants,American Restaurant,American restaurants,Hamburger restaurants,Ice cream parlors,Karaoke,Restaurants,Restaurant,Barbecue,Fast food restaurants,Spare rib restaurants",Indianapolis,39.701587,-86.081975,46203,IN,2015-09-13,2019-04-25,Steak 'n Shake,1320
194,AVwcp3nsByjofQCxgtN0,1421 N Arlington Ave,"Carry-out food,Seafood restaurants,Chinese Restaurants,American restaurants,Take Out Restaurants,Fast Food Restaurants,Restaurants,Asian Restaurants,Chinese Restaurant,Restaurant,Vegetarian restaurants,Korean Restaurants,New american restaurants,Asian restaurants,Fusion restaurants,Korean restaurants,Chinese restaurants",Indianapolis,39.787295,-86.063844,46219,IN,2016-03-30,2019-04-25,Oriental Inn,1121
195,AVwdJ_Gy_7pvs4fz21UG,3021 Southeastern Ave,"Carry-out food,Restaurant,Hot dog restaurants,Fast Food Restaurant,American restaurants,Hamburger restaurants,Fast Food Restaurants,Take Out Restaurants,Karaoke,Fast Food Restaurant Near Southeast,Hamburgers and Hot Dogs,Restaurants",Indianapolis,39.758888,-86.11313,46203,IN,2016-03-31,2019-04-22,McDonalds,1117
199,AV4_Q6c2RxPSIh2RgFai,2055 N Shadeland Ave Ste A,"Caterers,Restaurant Delivery Service,Fast Food Restaurant,Sandwich Place,Restaurants,Sandwich Shops",Indianapolis,39.795508,-86.044835,46219,IN,2017-09-01,2019-04-10,Jimmy Johns,586
200,AVwc9abokufWRAb501G9,4820 W 57th St,"Restaurant,American Restaurant,Fast Food Restaurant,wich Place,Take Out Restaurants,Sandwich Place,Restaurants,Sandwich Shops",Indianapolis,39.856323,-86.241535,46254,IN,2015-10-23,2019-04-10,Penn Station East Coast Subs,1265
201,AVwcmMaHByjofQCxgDoB,31 E South St,"Carry-out food,Delicatessens,American restaurants,Karaoke,Restaurants,Delis And Delicatessens,Restaurant,Sandwich Place Downtown Indianapolis,Fast Food Restaurant,wich Place,Sandwiches,Sandwich Place,Sandwich Shops",Indianapolis,39.76141,-86.157403,46225,IN,2015-10-23,2019-04-09,SUBWAY,1264
202,AV1fOxU63-Khe5l_NPe9,4545 W 38th St,"Restaurant,Fast Food Restaurant,Fast Food Restaurants,Take Out Restaurants,Hamburgers and Hot Dogs,Restaurants",Indianapolis,39.823442,-86.236869,46254,IN,2017-07-20,2019-04-04,McDonalds,623
203,AVweFvdMIN2L1WUf144c,5915 Madison Ave,"Restaurant,Carry-out food,Fast Food Restaurant,American Restaurant,wich Place,American restaurants,Fast Food Restaurants,Karaoke,Sandwich Place,Restaurants,Sandwich Shops",Indianapolis,39.680736,-86.131817,46227,IN,2016-10-18,2019-03-28,Arby's,891
204,AVz3adHe3D1zeR_xDC8a,1244 W 86th St,"Restaurant,American Restaurants,Traditional American,American Restaurant,Fast Food Restaurant,Take Out Restaurants,Fast Food Restaurants,Chicken,Catering,Restaurants",Indianapolis,39.91264,-86.181823,46260,IN,2017-06-30,2019-03-28,Boston Market,636
205,AVwdIgCxIN2L1WUfsiGN,120 W 38th St,"Restaurant,Carry-out food,Sandwich Place Butler - Tarkington,Delicatessens,American restaurants,Take Out Restaurants,Fast Food Restaurants,Karaoke,Sandwiches,Sandwich Place,Restaurants,Sandwich Shops",Indianapolis,39.82514,-86.16007,46208,IN,2015-10-23,2019-03-25,SUBWAY,1249
206,AV4_R2k_3-Khe5l_TFWy,5620 Georgetown Rd,"Carry-out food,Caterers,Restaurant delivery service,Delicatessens,American restaurants,Fast Food Restaurants,Home delivery beer and beverages,Sandwiches,Restaurants,Sandwich Shops",Indianapolis,39.85431,-86.24072,46254,IN,2017-09-01,2019-03-25,Jimmy Johns,570
207,AVwcmXT7IN2L1WUfmyot,4035 S Emerson Ave,"Carry-out food,Caterers,Fried Chicken Joint,Barbecued poultry,Fast Food Restaurant,American restaurants,Barbecue,Spare rib restaurants,Catering,Chicken restaurants,Restaurants",Indianapolis,39.7079,-86.0819,46203,IN,2015-10-23,2019-03-25,KFC,1249
208,AVwdOWImIN2L1WUfthpS,3006 S Holt Rd,"Carry-out food,Caterers,Restaurant delivery service,American restaurants,Take Out Restaurants,Fast Food Restaurants,Karaoke,Home delivery beer and beverages,Family Style Restaurants,Restaurants,Pizza,Restaurant,Pizza Place",Indianapolis,39.720526,-86.225121,46221,IN,2016-04-01,2019-03-25,Pizza Hut,1088
209,AVzBKfjI-gnIPe8DSkcA,6151 N Keystone Ave Ste 1100,"Restaurant,Carry-out food,Caterers,Restaurant delivery service,Delicatessens,Fast Food Restaurant,wich Place,American restaurants,Home delivery beer and beverages,Sandwiches,Sandwich Place,Restaurants",Indianapolis,39.866951,-86.120336,46220,IN,2017-06-19,2019-03-25,Jimmy Johns,644
210,AV1XWo0NLD2H7whiaQS0,7930 S Emerson Ave Ste 101,"Delis And Delicatessens,Restaurant,Carry-out food,Caterers,Delicatessens,American restaurants,Take Out Restaurants,Fast Food Restaurants,Karaoke,Sandwiches,Restaurants,Sandwich Shops",Indianapolis,39.6523,-86.0833,46237,IN,2017-07-18,2019-03-25,SUBWAY,615
211,AVwdfO6pByjofQCxpmrg,9355 E Washington St,"Ice Cream Parlors,Carry-out food,Hot dog restaurants,Hamburger restaurants,Dessert Restaurants,Ice cream and frozen desserts-retail,Fast food restaurants,Restaurants,Ice Cream Shop",Indianapolis,39.77366,-86.00344,46229,IN,2016-07-06,2019-03-25,Ritter's Frozen Custard,992
212,AVwdYYXyByjofQCxogto,3906 E 10th St,"Ice Cream Parlors,Carry-out food,Ice Cream Shop and Dessert Shop Near Eastside,American restaurants,Ice Cream Store,Fast Food Restaurants,Restaurants,Ice Cream Shop,Dessert Shop,Ice Cream & Frozen Desserts,Hamburgers & Hot Dogs,Restaurant,Dessert Restaurants,Ice cream and frozen desserts-retail",Indianapolis,39.781695,-86.100195,46201,IN,2015-10-20,2019-03-25,Dairy Queen,1252
213,AVwdWi-sByjofQCxoNra,4020 S East St,"Ice Cream Parlors,Carry-out food,Hot dog restaurants,Steak and chop restaurants,American Restaurant,American restaurants,Hamburger restaurants,Fast Food Restaurants,Karaoke,Restaurants,American Restaurant, Fast Food Restaurant, and Breakfast Spot,Restaurant,Breakfast Spot,Fast Food Restaurant,Barbecue,Hamburgers and Hot Dogs,Spare rib restaurants",Indianapolis,39.707042,-86.149478,46227,IN,2016-03-31,2019-03-22,Steak 'n Shake,1086
214,AV5aJv1B3-Khe5l_Vj89,135 N Pennsylvania St Ste 150,"American Restaurants,Caterers,Hot Dog Stands and Restaurants,Fast Food Restaurants,Karaoke,Hamburgers and Hot Dogs,Restaurants",Indianapolis,39.76946,-86.15567,46204,IN,2017-09-07,2019-03-22,King David Dogs,561
215,AVwdmhU0ByjofQCxqu68,5963 E 82nd St,"Carry-out food,Caterers,Delicatessens,American restaurants,Fast Food Restaurants,Take Out Restaurants,Karaoke,Restaurants,Delis And Delicatessens,Restaurant,wich Place,Sandwiches,Catering,Food,Sandwich Shops",Indianapolis,39.9046,-86.0655,46250,IN,2015-09-13,2019-03-14,Firehouse Subs,1278
216,AVwdJusuIN2L1WUfsvJI,7218 W 10th St,"Pizza,Italian Restaurant,Restaurant,Fast Food Restaurant,Take Out Restaurants,Pasta,Family Style Restaurants,Restaurants,Italian Restaurants",Indianapolis,39.779677,-86.286614,46214,IN,2016-03-29,2019-03-09,Fazoli's,1075
218,AV1tb8X6a4HuVbed8C4W,4105 E 96th St,"Carry-out food,Hot dog restaurants,Seafood restaurants,Steak and chop restaurants,Ice cream parlors,American restaurants,Hamburger restaurants,Karaoke,Restaurants,Restaurant,Barbecue,Fast food restaurants,Spare rib restaurants",Indianapolis,39.92687,-86.097242,46240,IN,2017-07-23,2019-03-09,Steak 'n Shake,594
219,AVweeTYmByjofQCxyiWt,7198 Michigan Rd,"Carry-out food,Tex-mex restaurants,Southwestern restaurants,American restaurants,Mexican restaurants,Karaoke,fast food restaurants,Restaurants",Indianapolis,39.8844,-86.2096,46268,IN,2015-09-28,2019-03-08,Taco Bell,1257
220,AV5aJwsr3-Khe5l_VkAT,7224 W 10th St,"Carry-out food,Barbecued poultry,American restaurants,Take Out Restaurants,Fast Food Restaurants,Chicken Restaurants,Barbecue,Spare rib restaurants,Restaurants",Indianapolis,39.77963,-86.28749,46214,IN,2017-09-07,2019-03-05,Church's Chicken,544
224,AVwdbFpRByjofQCxo9gv,2402 E 38th St,"Catering Companies,Southern & Soul Restaurants,Fast Food Restaurant Meadows,Fast Food Restaurant,Fast Food Restaurants,Cajun & Creole Restaurants,Chicken Restaurants,Catering,Restaurants",Indianapolis,39.8256,-86.1215,46218,IN,2015-10-23,2019-03-02,Popeye's Chicken & Biscuits,1226
225,AVwdIg1LkufWRAb52oD1,6245 E Washington St,"Ice Cream Parlors,Ice Cream & Frozen Desserts,Hamburgers & Hot Dogs,Restaurant,Food Drink Shop,Ice Cream Store,Fast Food Restaurants,Dessert Restaurants,Frozen Yogurt,Ice Cream Shop and Food Drink Shop,Restaurants,Ice Cream Shop",Indianapolis,39.771407,-86.058197,46219,IN,2016-03-30,2019-03-01,Dairy Queen,1066
226,AVwcszlM_7pvs4fzyBXp,3860 N College Ave,"Fried Chicken Joint Meridian Kessler,Catering Companies,Fried Chicken Joint,Southern & Soul Restaurants,Fast Food Restaurants,Traditional American Restaurants,Chicken Restaurants,Catering,Restaurants",Indianapolis,39.8267,-86.1454,46205,IN,2015-10-23,2019-03-01,Church's Chicken,1225
227,AVwdZfhGIN2L1WUfvZmf,2964 Shelby St,"Restaurant,Catering Companies,Fried Chicken Joint,Southern & Soul Restaurants,Fast Food Restaurants,Take Out Restaurants,Chicken Restaurants,Traditional American Restaurants,Catering,Fried Chicken Joint Garfield Park,Restaurants",Indianapolis,39.7229,-86.1399,46203,IN,2015-10-23,2019-03-01,Church's Chicken,1225
228,AV1tfBSqIxWefVJwgzrk,7880 Michigan Rd I1,"Pizza,Restaurant,Carry-out food,Caterers,Restaurant delivery service,American restaurants,Take Out Restaurants,Fast Food Restaurants,Karaoke,Home delivery beer and beverages,Family Style Restaurants,Restaurants",Indianapolis,39.89657,-86.21709,46268,IN,2017-07-23,2019-02-26,Pizza Hut,583
229,AVweVMTNkufWRAb5B_dt,7245 Us 31 S,"Carry-out food,Delicatessens,American restaurants,Take Out Restaurants,Fast Food Restaurants,Karaoke,Restaurants,Delis And Delicatessens,Restaurant,wich Place,Sandwiches,Sandwich Place,Sandwich Shops",Indianapolis,39.6598,-86.1423,46227,IN,2015-10-23,2019-02-05,SUBWAY,1201
230,AVwdb7GfByjofQCxpGix,4031 E Southport Rd,"Breakfast Brunch and Lunch Restaurants,Restaurant,Breakfast Spot,Carry-out food,Diner, Breakfast Spot, and American Restaurant,Fast Food Restaurant,American restaurants,Diner,Restaurants",Indianapolis,39.665439,-86.098553,46237,IN,2016-03-26,2018-12-25,Waffle House,1004
231,AV1gcgnb3-Khe5l_NR_7,4441 Southport Crossings Dr,"American Restaurants,Restaurant,Carry-out food,Breakfast,Family Style Dining,Fast Food Restaurants,Karaoke,Family Style Restaurants,Restaurants",Indianapolis,39.6651,-86.092,46237,IN,2017-07-20,2018-12-24,Bob Evans,522
232,AVwd87luIN2L1WUf0qu8,4210 Kildeer Dr,"Hamburgers & Hot Dogs,Restaurant,Carry-out food,Hot dog restaurants,American restaurants,Hamburger restaurants,Fast Food Restaurants,Hamburgers and Hot Dogs,Restaurants",Indianapolis,39.666401,-86.095581,46237,IN,2016-07-26,2018-12-23,Burger King,880
233,AV1tfBS6RxPSIh2RbPRR,6905 S Emerson Ave Ste G,"Pizza,Carry-out food,Restaurant,Caterers,Restaurant delivery service,American restaurants,Take Out Restaurants,Fast Food Restaurants,Home delivery beer and beverages,Family Style Restaurants,Restaurants",Indianapolis,39.66755,-86.08186,46237,IN,2017-07-23,2018-12-19,Pizza Hut,514
235,AV1dDnM4IxWefVJwezBW,721 NW 9th Ave Ste 175,"Caterers,Take Out Restaurants,Fast Food Restaurants,Health Food Restaurants,Family Style Restaurants,Restaurants,American Restaurants,Coffee Shops,Ice Cream and Frozen Desserts,Restaurant,Vegan Restaurants,Steak Houses,Bar and Grills,Dessert Restaurants,Vegetarian Restaurants",Portland,45.52834,-122.68064,97209,OR,2017-07-19,2019-05-11,Laughing Planet Cafe,661
241,AVwdF6B1kufWRAb52N7_,1031 Sw 6th Ave,"Sandwich Place Downtown Portland,Restaurant,Carry-out food,Caterers,Delicatessens,Fast Food Restaurant,wich Place,American restaurants,Sandwiches,Sandwich Place,Restaurants",Portland,45.516562,-122.679885,97204,OR,2015-11-02,2019-05-07,SUBWAY,1282
242,AVzA-0qQFcQ3k02bBasQ,937 Sw 5th Ave,"Delis And Delicatessens,Carry-out food,Caterers,Restaurant delivery service,Delicatessens,Fast Food Restaurant,wich Place,American restaurants,Home delivery beer and beverages,Sandwiches,Sandwich Place,Restaurants",Portland,45.51685,-122.679053,97204,OR,2017-06-19,2019-05-07,Jimmy Johns,687
243,AVwc7VBHIN2L1WUfqaZU,733 Sw 10th Ave,"Restaurant,Carry-out food,Restaurant delivery service,Caterers,Delicatessens,Fast Food Restaurant,wich Place,American restaurants,Home delivery beer and beverages,Sandwiches,Sandwich Place,Restaurants",Portland,45.519561,-122.682528,97205,OR,2015-11-26,2019-05-07,Jimmy Johns,1258
244,AVwdlDKaIN2L1WUfxM1-,1139 Ne Broadway St,"Carry-out food,Caterers,Restaurant delivery service,Delicatessens,Food Delivery Service,Home delivery beer and beverages,Restaurants,Delis And Delicatessens,Restaurant,Fast Food Restaurant,wich Place,Sandwiches,Sandwich Place,Sandwich Shops",Portland,45.5351,-122.6536,97232,OR,2016-06-20,2019-05-07,Jimmy Johns,1051
245,AVwcvJ9RkufWRAb5yeCQ,2309 Lloyd Ctr,"Asian Restaurant and Japanese Restaurant Lloyd District,Japanese Restaurants,Asian Restaurant and Japanese Restaurant,Japanese Restaurant,Asian Restaurant,Fast Food Restaurants,Restaurants",Portland,45.532701,-122.653584,97232,OR,2015-11-02,2019-05-01,Sarku Japan,1276
246,AVwdV3kfIN2L1WUfuzEf,5265 N Lombard St,"Carry-out food,Caterers,Restaurant delivery service,Chicken Wings,Food Delivery,American restaurants,Take Out Restaurants,Fast Food Restaurants,Home delivery beer and beverages,Pizza Place Portsmouth,Family Style Restaurants,Restaurants,Pizza,Delivery service,Pizza Place",Portland,45.582385,-122.722979,97203,OR,2015-11-02,2019-04-30,Pizza Hut,1275
247,AVzA82uDFcQ3k02bBY8n,13480 Nw Science Park Dr,"Mexican Restaurant,Restaurant,Carry-out food,Tex-mex restaurants,Southwestern restaurants,Fast Food Restaurant,American restaurants,Mexican restaurants,Restaurants",Portland,45.52452,-122.81565,97229,OR,2017-06-19,2019-04-28,Taco Bell,678
248,AVweLyYBkufWRAb5AumR,1201 Nw Lovejoy St,"Carry-out food,Mexican Restaurants,Mexican,Taco Place,Tex-mex restaurants,Southwestern restaurants,American restaurants,Mexican restaurants,Fast Food Restaurants,Take Out Restaurants,Food and beverage consultants,Food products,Mexican Restaurant, Burrito Place, and Taco Place Pearl,Restaurants,Food processing and manufacturing,Mexican Restaurant,Restaurant,Mexican Restaurant, Burrito Place, and Taco Place,Burrito Place",Portland,45.5302,-122.6836,97209,OR,2017-01-15,2019-04-28,Chipotle Mexican Grill,833
249,AVwc29Un_7pvs4fzztV0,615 Sw 19th Ave,"Carry-out food,Sandwich Place Goose Hollow,Caterers,Restaurant delivery service,Delicatessens,American restaurants,Fast Food Restaurants,Home delivery beer and beverages,Sandwiches,Sandwich Place,Restaurants,Sandwich Shops",Portland,45.52292,-122.69021,97205,OR,2016-03-23,2019-04-25,Jimmy Johns,1128
250,AVweWR2lByjofQCxxaef,7365 SW Barnes Rd,"Restaurant,Fast Food Restaurant,wich Place,Sandwich Place",Portland,45.516533,-122.752991,97225,OR,2016-03-29,2019-04-25,SUBWAY,1122
251,AVzYMi4YLD2H7whiWxcn,555 Nw Saltzman Rd,"Ice Cream Parlors,Restaurant,Burger Joint,Carry-out food,Fast Food Restaurant,Ice cream parlors,American restaurants,Ice Cream Store,Restaurants,Ice Cream Shop",Portland,45.524522,-122.806151,97229,OR,2017-06-24,2019-04-21,Dairy Queen,666
252,AVwclZ03IN2L1WUfmnNo,6960 Sw Beaverton Hillsdale Hwy,"Delis And Delicatessens,Carry-out food,Delicatessens,Fast Food Restaurant,wich Place,American restaurants,Sandwiches,Sandwich Place,Restaurants,Sandwich Shops",Portland,45.4862,-122.7484,97225,OR,2015-10-23,2019-04-21,SUBWAY,1276
253,AVweOeL3IN2L1WUf3FQ_,4835 NE Sandy Blvd,"Fried Chicken Joint,Take Out Restaurants,Fast Food Restaurants,Chicken Restaurants,Fried Chicken Joint Rose City Park,Catering,Restaurants",Portland,45.539722,-122.612437,97213,OR,2015-10-23,2019-04-10,KFC,1265
254,AVwdVOkRkufWRAb54yJY,3504 Se 92nd Ave,"Hamburgers & Hot Dogs,Restaurant,Carry-out food,Hot dog restaurants,Hamburger restaurants,Fast Food Restaurants,Hamburgers and Hot Dogs,Restaurants",Portland,45.496585,-122.566573,97266,OR,2016-04-06,2019-04-10,Burgerville,1099
255,AV1c10hfa4HuVbed5gA1,2247 Ne 82nd Ave,"Restaurant,Carry-out food,Mexican,Breakfast,Tex-mex restaurants,Southwestern restaurants,Vegetarian,American restaurants,Mexican restaurants,Fast Food,Restaurants",Portland,45.5386,-122.5793,97220,OR,2017-07-19,2019-04-10,Taco Bell,630
256,AVwckbY5ByjofQCxfutP,7415 Ne M L King Blvd,"Mexican Restaurant,Carry-out food,Tex-mex restaurants,Southwestern restaurants,Fast Food Restaurant,American restaurants,Mexican restaurants,Restaurants",Portland,45.576643,-122.661672,97211,OR,2016-03-23,2019-04-10,Taco Bell,1113
257,AVwdkuKOByjofQCxqcrf,5024 Ne M L King Blvd,"Pizza,Carry-out food,Caterers,Restaurant delivery service,Pizza Place King,American restaurants,Take Out Restaurants,Fast Food Restaurants,Home delivery beer and beverages,Barbecue Restaurants,Catering,Restaurants",Portland,45.5593,-122.6614,97211,OR,2015-10-23,2019-04-10,Pizza Hut,1265
258,AVwc47ILIN2L1WUfp_63,11619 Sw Pacific Hwy,"Mexican Restaurant,Carry-out food,Mexican Restaurants,Tex-mex restaurants,Southwestern restaurants,American restaurants,Take Out Restaurants,Fast Food Restaurants,Latin American Restaurants,Restaurants",Portland,45.4393,-122.7524,97223,OR,2016-03-22,2019-04-10,Mazatlan Mexican Restaurant,1114
259,AVwdGTB3ByjofQCxlfGt,318 Se Grand Ave,"Natural food restaurants,Caterers,Catering Companies,Middle Eastern Restaurant,Seafood restaurants,Ethnic Food Markets,American restaurants,Fast Food Restaurants,Take Out Restaurants,Breakfast Brunch and Lunch Restaurants,,Family Style Restaurants,Restaurants,Juice bars,Falafel Restaurant,Restaurant,Vegetarian restaurants,Mediterranean Restaurants,Ethnic Markets,New american restaurants,Health food restaurants,Middle eastern restaurants,Fusion restaurants,Catering",Portland,45.5205,-122.6606,97214,OR,2016-03-22,2019-04-10,Nicholas' Restaurant,1114
260,AVz1hWh3LD2H7whiX_ZL,14811 Se Mcloughlin Blvd,"Burger Joint,Restaurant,Carry-out food,Hot dog restaurants,Fast Food Restaurant,American restaurants,Hamburger restaurants,Restaurants",Portland,45.415494,-122.631985,97267,OR,2017-06-29,2019-04-10,Jack in the Box,650
261,AVzoDenJLD2H7whiXgQ9,16300 SE McLoughlin Blvd,"Carry-out food,Mexican,Breakfast,Tex-mex restaurants,Vegetarian,Southwestern restaurants,American restaurants,Mexican restaurants,Fast Food,Restaurants,Mexican Restaurant,Restaurant,Fast Food Restaurant",Portland,45.405038,-122.623103,97267,OR,2017-06-27,2019-04-05,Taco Bell,647
262,AVweJp7VByjofQCxvuFQ,3622 NE Sandy Blvd,"Pizza,Take Out Restaurants,Fast Food Restaurants,Pizza Place,Restaurants",Portland,45.533099,-122.62637,97232,OR,2016-11-14,2019-04-05,Dominos Pizza,872
263,AVwcwxDV_7pvs4fzyr9G,5135 SE Foster Rd,"Carry-out food,Delicatessens,American Restaurant,American restaurants,Restaurant mgmt.,Restaurants,Delis And Delicatessens,Restaurant consultants,Sandwich Place Foster-Powell,Fast Food Restaurant,wich Place,Sandwiches,Sandwich Place,Sandwich Shops",Portland,45.496097,-122.609305,97206,OR,2015-11-02,2019-04-03,SUBWAY,1248
265,AVweGhPV_7pvs4fzADNg,4200 SE 82nd Ave,"Delis And Delicatessens,Restaurant,Sandwich Place Lents,Fast Food Restaurant,wich Place,Sandwich Place,Restaurants,Sandwich Shops",Portland,45.491868,-122.575518,97266,OR,2016-04-17,2019-04-01,SUBWAY,1079
266,AV1c2N3y3-Khe5l_L39n,17971 Sw Mcewan Rd,"Restaurant,Carry-out food,Hot dog restaurants,Fast Food Restaurant,American restaurants,Hamburger restaurants,Fast food restaurants,Restaurants",Portland,45.394334,-122.747032,97224,OR,2017-07-19,2019-04-01,Burger King,621
267,AV0ZDTea3D1zeR_xD2O_,7409 SW Bridgeport Rd,"Natural food restaurants,Hamburgers & Hot Dogs,Juice bars,Restaurant,Hot dog restaurants,Vegetarian restaurants,American restaurants,Hamburger restaurants,Fast Food Restaurants,Health food restaurants,Burger Joint Tigard Neighborhood Area 7,Restaurants",Portland,45.3948,-122.752,97224,OR,2015-09-13,2019-03-29,Joe's Burgers,1293
269,AVwc4mjbIN2L1WUfp8ND,2621 SE Clinton St,"Restaurant,bar,Fast Food Restaurants,Cable Internet,Cafes,Restaurants",Portland,45.5036,-122.6393,97202,OR,2016-06-14,2019-03-29,Press Club (The),1018
270,AV1grl4k3-Khe5l_Nkzo,9350 SE Stark Street,"Restaurant,Mexican,Breakfast,Vegetarian,Fast Food,Restaurants",Portland,45.5188,-122.5664,97216,OR,2017-07-20,2019-03-29,Taco Bell,617
271,AVwd4GF2_7pvs4fz-CyL,5038 S E Powell Blvd,"Restaurant,Burger Joint,Carry-out food,Hot dog restaurants,Fast Food Restaurant,American restaurants,Hamburger restaurants,Fast Food,Fast food restaurants,Restaurants",Portland,45.4973,-122.6104,97206,OR,2016-03-24,2019-03-29,Burger King,1100
272,AVwdYAuZ_7pvs4fz5Oq7,6369 SW Capitol Hwy,"Italian Restaurant,Caterers,Fine Dining Restaurants,American restaurants,Take Out Restaurants,Breakfast Brunch and Lunch Restaurants,,Fast Food Restaurants,Health Food Restaurants,Family Style Restaurants,Restaurants,Italian Restaurants,Pizza,Restaurant,Wine Bars,Coffee Shops,Wi-Fi Hotspots,Breakfast Brunch & Lunch Restaurants,,Coffee & Espresso Restaurants,Coffee & Tea",Portland,45.4676,-122.7146,97239-1937,OR,2016-06-14,2019-03-28,Oak & Olive,1017
273,AVwc2GIoByjofQCxi0N4,540 SW College St,"Burger Joint,American Restaurants,Restaurant,Caterers,Burger Joint Downtown Portland,Fast Food Restaurants,Take Out Restaurants,Hamburgers and Hot Dogs,Restaurants",Portland,45.5096,-122.6833,97201,OR,2015-10-20,2019-03-28,Joe's Burgers,1255
274,AVwcjcSr_7pvs4fzwYSu,12160 SW Scholls Ferry Rd,"Carry-out food,Delicatessens,Sandwich Place Tigard Neighborhood Area 2,Food and Beverage,American restaurants,Restaurants,Delis And Delicatessens,Restaurant,Salads and Soups,Fast Food Restaurant,wich Place,Sandwiches,Sandwich Place,Sandwich Shops",Portland,45.443258,-122.801271,97223,OR,2015-09-13,2019-03-26,SUBWAY,1290
275,AVwdGFxcByjofQCxlc5p,11634 SW Pacific Hwy,"Carry-out food,Sandwich Place Lloyd District,Delicatessens,Sandwich Place Tigard Neighborhood Area 5,Fast Food Restaurant,wich Place,American restaurants,Locksmiths,Sandwiches,Sandwich Place,Restaurants",Portland,45.438331,-122.753693,97223,OR,2015-10-20,2019-03-26,SUBWAY,1253
276,AVwcqWCpIN2L1WUfnfXR,9504 SW Washington Square Rd,"Natural food restaurants,Juice Bars,Carry-out food,Ice cream parlors,American restaurants,Fast Food Restaurants,Restaurants,Ice Cream and Frozen Desserts,Snack Place,Vegetarian restaurants,Refreshment Stands,Juices,Health food restaurants",Portland,45.450898,-122.781772,97223,OR,2016-07-06,2019-03-26,Orange Julius,993
277,AVwdefXjkufWRAb56SIK,2125 W Burnside St,"Restaurant,Sandwich Place Northwest District,Carry-out food,Delicatessens,Fast Food Restaurant,wich Place,American restaurants,Sandwiches,Sandwich Place,Restaurants",Portland,45.523399,-122.694857,97210,OR,2015-10-20,2019-03-26,SUBWAY,1253
278,AVzTgqpt3D1zeR_xBZCh,7140 Sw Hazelfern Rd,"Carry-out food,Caterers,Restaurant delivery service,Delicatessens,American restaurants,Home delivery beer and beverages,Restaurants,Delis And Delicatessens,Gourmet shops,Fast Food Restaurant,wich Place,Gourmet shop restaurants,Sandwiches",Portland,45.394,-122.7503,97224,OR,2017-06-23,2019-03-14,Jimmy Johns,629
279,AV1XXPkn3D1zeR_xFNYa,4147 Se Division St,"Asian Restaurants,Restaurant,Steak and chop restaurants,Thai Restaurants,Fast Food Restaurants,Take Out Restaurants,Barbecue Restaurants,Barbecue,Spare rib restaurants,Vegetarian Restaurants,Restaurants",Portland,45.50499,-122.62002,97202,OR,2017-07-18,2019-03-14,New Thai Blues,604
280,AVwc9miM_7pvs4fz0z0H,1513 Ne 181st Ave,"Pizza,Carry-out food,Restaurant delivery service,Caterers,American restaurants,Take Out Restaurants,Fast Food Restaurants,Home delivery beer and beverages,Uncategorized,Pizza Place,Restaurants,Uncategorized Wilkes East",Portland,45.53376,-122.47742,97230,OR,2016-06-14,2019-03-14,Pizza Hut,1003
281,AVwchRh5kufWRAb5wDKp,9651 Sw Washington Square Rd,"Carry-out food,Mexican Restaurants,Taco Place,Tex-mex restaurants,Southwestern restaurants,Mexican Restaurant and Food Court,American restaurants,Family style restaurants,Fast Food Restaurants,Mexican Restaurant and Food Court Tigard Neighborhood Area 4,Restaurants",Portland,45.44838,-122.78272,97223,OR,2015-11-04,2019-03-14,Taco Time,1226
282,AV9S5k6-IxWefVJwrcLl,8245 Se Division St,"Greek Restaurants,Turkish restaurants,Mediterranean Restaurants,Fast Food Restaurants,Armenian restaurants,Restaurants",Portland,45.50494,-122.57775,97266,OR,2017-10-25,2019-03-14,Gyro Town,505
285,AVwc5NkHIN2L1WUfqDFY,13535 Nw Cornell Rd,"Carry-out food,Mexican Restaurants,Tex-mex restaurants,Southwestern restaurants,Fast Food Restaurants,Take Out Restaurants,Restaurants",Portland,45.52755,-122.81551,97229,OR,2017-01-15,2018-12-14,Chipotle Mexican Grill,698
